INTELSAT 10 (IS-10)     
1 26766U 01019A   25235.08316457  .00000000  00000+0  00000+0 0  9997
2 26766   8.3572  62.2839 0001612 173.9745  24.4203  0.99074600 42624
INTELSAT 902 (IS-902)   
1 26900U 01039A   25234.45095672 -.00000301  00000+0  00000+0 0  9997
2 26900   5.3573  75.4403 0004166  76.3333 291.4803  1.00271460 87707
INTELSAT 904 (IS-904)   
1 27380U 02007A   25234.88366672 -.00000220  00000+0  00000+0 0  9994
2 27380   6.1692  72.7623 0003123 102.9556  86.3585  1.00271566 48779
DIRECTV 5 (TEMPO 1)     
1 27426U 02023A   25235.22418425 -.00000073  00000+0  00000+0 0  9992
2 27426   4.1115  79.0518 0003277  86.5697 136.7252  1.00272391 85133
INTELSAT 905 (IS-905)   
1 27438U 02027A   25235.21881089  .00000079  00000+0  00000+0 0  9993
2 27438   5.9996  73.3908 0002319  79.0887 120.8395  1.00272674 48377
GALAXY 3C (G-3C)        
1 27445U 02030A   25235.22721759 -.00000169  00000+0  00000+0 0  9994
2 27445   2.9677  81.7292 0002413  55.3378 181.6353  1.00271515 43506
INTELSAT 906 (IS-906)   
1 27513U 02041A   25234.54498211 -.00000004  00000+0  00000+0 0  9998
2 27513   5.0384  76.6153 0001924  77.7907  77.0268  1.00270965 84036
GALAXY 23 (G-23)        
1 27854U 03034A   25235.23961098 -.00000249  00000+0  00000+0 0  9995
2 27854   2.4213  83.3235 0005132 127.1179 175.1295  0.98956651 80741
GALAXY 13 (HORIZONS-1)  
1 27954U 03044A   25235.21629756  .00000116  00000+0  00000+0 0  9999
2 27954   0.6429  88.3742 0002014  59.9757 111.2687  1.00273094 43583
INTELSAT 10-02          
1 28358U 04022A   25235.01086318 -.00000028  00000+0  00000+0 0  9997
2 28358   0.0507 277.0325 0001021 267.8610 149.5797  1.00272836 77566
XM-3 (RHYTHM)           
1 28626U 05008A   25234.51517284 -.00000217  00000+0  00000+0 0  9995
2 28626   0.0119  65.1899 0000411 168.6059 196.3831  1.00269774 39623
DIRECTV 8               
1 28659U 05019A   25235.22245091 -.00000016  00000+0  00000+0 0  9993
2 28659   0.0145 100.0350 0003014  65.7409 127.0098  1.00271837 74085
GALAXY 28 (G-28)        
1 28702U 05022A   25235.22843094 -.00000204  00000+0  00000+0 0  9992
2 28702   2.5267  82.6820 0002393  77.0419 165.5745  1.00270946 48996
GALAXY 16 (G-16)        
1 29236U 06023A   25235.22635093 -.00000144  00000+0  00000+0 0  9998
2 29236   0.0587 251.9608 0002620 263.2883 158.9812  1.00272848 69985
DIRECTV 9S              
1 29494U 06043A   25235.25232603 -.00000130  00000+0  00000+0 0  9994
2 29494   1.6473  84.6147 0002850  69.9632 166.8408  1.00271992 48399
GALAXY 17 (G-17)        
1 31307U 07016B   25235.22912427 -.00000223  00000+0  00000+0 0  9990
2 31307   2.2128  83.7333 0002695 117.3522 128.1534  1.00272036 66817
DIRECTV 10              
1 31862U 07032A   25232.58473125 -.00000121  00000+0  00000+0 0  9994
2 31862   0.0085 326.4400 0000480 252.5780 217.8439  1.00271312 42574
INTELSAT 11 (IS-11)     
1 32253U 07044B   25235.25044510 -.00000203  00000+0  00000+0 0  9992
2 32253   2.7844  82.3735 0006789 107.1787 228.3313  0.99053206 65491
HORIZONS-2              
1 32388U 07063B   25235.23137762 -.00000270  00000+0  00000+0 0  9996
2 32388   1.8285  84.3896 0001917  76.8559 180.0083  1.00270098 64823
DIRECTV 11              
1 32729U 08013A   25234.53777543 -.00000144  00000+0  00000+0 0  9990
2 32729   0.0227 301.2688 0000439 316.2595 167.9552  1.00272901 42598
GALAXY 18 (G-18)        
1 32951U 08024A   25235.22167090  .00000008  00000+0  00000+0 0  9994
2 32951   0.0149 102.1331 0003218  67.9037 118.4991  1.00272804 42860
INTELSAT 25 (IS-25)     
1 33153U 08034A   25235.23978432 -.00000241  00000+0  00000+0 0  9991
2 33153   1.9353  84.0680 0004334  95.5701 206.9512  1.00269834 62708
GALAXY 19 (G-19)        
1 33376U 08045A   25234.51300616 -.00000157  00000+0  00000+0 0  9999
2 33376   0.0616 273.0650 0002880 250.4711 255.1972  1.00272550 61907
FM-5                    
1 35493U 09034A   25234.22970041 -.00000219  00000+0  00000+0 0  9992
2 35493   0.0460 279.9053 0000941 130.3253 277.0784  1.00275620 43647
INTELSAT 14 (IS-14)     
1 36097U 09064A   25235.23709764 -.00000290  00000+0  00000+0 0  9999
2 36097   0.0128  82.5245 0002626  84.2401 205.3643  1.00273325 57614
INTELSAT 15 (IS-15)     
1 36106U 09067A   25235.05739389  .00000000  00000+0  00000+0 0  9997
2 36106   0.0216 128.9254 0002228  29.0468 279.4525  1.00268790 38234
DIRECTV 12              
1 36131U 09075A   25232.58473125 -.00000121  00000+0  00000+0 0  9997
2 36131   0.0033 211.9529 0000442  24.3742 200.6016  1.00272208 43535
INTELSAT 16 (IS-16)     
1 36397U 10006A   25235.23094428 -.00000261  00000+0  00000+0 0  9992
2 36397   0.0023 283.0294 0002607 253.8704 161.7974  1.00271997 56661
XM-5                    
1 37185U 10053A   25234.50945281 -.00000044  00000+0  00000+0 0  9990
2 37185   0.0554 280.6746 0000505 280.3498 198.2267  1.00288483 54487
INTELSAT 17 (IS-17)     
1 37238U 10065B   25235.11635806 -.00000019  00000+0  00000+0 0  9991
2 37238   0.0119 166.7415 0002906   1.5819 271.2211  1.00272508 50250
INTELSAT 28 (IS-28)     
1 37392U 11016A   25235.23969765 -.00000241  00000+0  00000+0 0  9993
2 37392   1.0315  86.6282 0004537  65.7140 234.0312  1.00271124 50299
INTELSAT 18 (IS-18)     
1 37834U 11056A   25235.20461509  .00000000  00000+0  00000+0 0  9990
2 37834   0.0267 126.0120 0001807  26.2961  73.0911  1.00270695 50822
INTELSAT 22 (IS-22)     
1 38098U 12011A   25235.11757139 -.00000076  00000+0  00000+0 0  9996
2 38098   0.0085 112.8510 0002072  54.9580 278.2648  1.00272521  4194
INTELSAT 19 (IS-19)     
1 38356U 12030A   25235.20754419 -.00000073  00000+0  00000+0 0  9999
2 38356   0.0210  96.7114 0003206  69.0990  46.6389  1.00271535 47463
INTELSAT 20 (IS-20)     
1 38740U 12043A   25235.11687806 -.00000041  00000+0  00000+0 0  9990
2 38740   0.0148 133.3094 0000395 343.0714 325.8421  1.00270945 47755
INTELSAT 21 (IS-21)     
1 38749U 12045A   25235.23449763 -.00000302  00000+0  00000+0 0  9992
2 38749   0.0408 278.2409 0002149 258.7980 181.1492  1.00272623 47530
INTELSAT 23 (IS-23)     
1 38867U 12057A   25232.80872800 -.00000303  00000+0  00000+0 0  9999
2 38867   0.0564 257.6766 0000319 232.6002  77.2390  1.00267310 46947
FM-6                    
1 39360U 13058A   25234.22372038 -.00000036  00000+0  00000+0 0  9999
2 39360   0.0209 116.4411 0002317  54.0764 124.6448  1.00273255 43068
INTELSAT 30 (IS-30)     
1 40271U 14062A   25234.22788039 -.00000169  00000+0  00000+0 0  9997
2 40271   0.0163  77.9684 0001419 316.6286 283.1484  1.00270035  3780
DIRECTV 14              
1 40333U 14078B   25234.53777598  .00000000  00000+0  00000+0 0  9998
2 40333   0.0274 117.4835 0000550  87.8723 220.1091  1.00268537 39045
DIRECTV 15              
1 40663U 15026A   25234.51187949 -.00000121  00000+0  00000+0 0  9996
2 40663   0.0233  94.5488 0000506 272.4162  45.4990  1.00271525 37466
SKY MEXICO-1            
1 40664U 15026B   25235.23042427  .00000000  00000+0  00000+0 0  9993
2 40664   0.0198 126.7563 0002000  24.2303 184.9722  1.00269954 37465
INTELSAT 34 (IS-34)     
1 40874U 15039A   25234.44991672  .00000000  00000+0  00000+0 0  9997
2 40874   0.0256 119.4482 0001961 241.6398  76.3889  1.00263297 36625
INTELSAT 31 (IS-31)     
1 41581U 16035A   25233.73239172 -.00000169  00000+0  00000+0 0  9998
2 41581   0.0206 206.7084 0001638  37.8717 254.2926  1.00270011 33689
INTELSAT 36 (IS-36)     
1 41747U 16053A   25234.18895264 -.00000042  00000+0  00000+0 0  9992
2 41747   0.0133  63.0529 0002321 288.6740 115.5244  1.00267355 32950
INTELSAT 32E (IS-32E)   
1 41945U 17007B   25234.52331536 -.00000287  00000+0  00000+0 0  9998
2 41945   0.0164  98.8958 0000113 241.9933 135.3850  1.00271561 31236
INTELSAT 35E (IS-35E)   
1 42818U 17041A   25235.23917765 -.00000255  00000+0  00000+0 0  9994
2 42818   0.0359 265.4754 0001956 273.6783 204.2308  1.00272007 29821
INTELSAT 37E (IS-37E)   
1 42950U 17059A   25235.24247101 -.00000157  00000+0  00000+0 0  9992
2 42950   0.0153 108.0720 0002603  50.4321 242.5500  1.00271929 29072
AZERSPACE 2 (IS-38)     
1 43632U 18074A   25235.18362409  .00000000  00000+0  00000+0 0  9996
2 43632   0.0213 131.5724 0001039  10.2270 301.1444  1.00270201 25450
HORIZONS-3E             
1 43633U 18074B   25234.42304993 -.00000049  00000+0  00000+0 0  9991
2 43633   0.0433 258.2001 0001638  37.2562 356.8010  1.00272622 25341
AT&T T-16               
1 44333U 19034A   25235.22600426 -.00000132  00000+0  00000+0 0  9998
2 44333   0.0180  98.8684 0000357 291.8660 281.5287  1.00271826 22642
INTELSAT 39 (IS-39)     
1 44476U 19049B   25235.11557804  .00000000  00000+0  00000+0 0  9994
2 44476   0.0232 131.5596 0000895 199.4887 104.1553  1.00270784 22138
GALAXY 30 (G-30)        
1 46114U 20056C   25235.22123757  .00000000  00000+0  00000+0 0  9993
2 46114   0.0266 123.3846 0002150  33.7318 129.2907  1.00270571 18307
GALAXY 33 (G-33)        
1 54026U 22128A   25235.21967757  .00000000  00000+0  00000+0 0  9991
2 54026   0.0219 124.6135 0001794  24.7149 128.5215  1.00270116 10756
GALAXY 34 (G-34)        
1 54027U 22128B   25235.22045757  .00000042  00000+0  00000+0 0  9996
2 54027   0.0166  96.4294 0001446  53.2029 132.4826  1.00271185 10926
GALAXY 31 (G-31)        
1 54243U 22153A   25235.22201757 -.00000004  00000+0  00000+0 0  9997
2 54243   0.0103 163.9006 0001356  40.9040  85.8710  1.00271956  4140
GALAXY 32 (G-32)        
1 54244U 22153B   25235.09732262 -.00000191  00000+0  00000+0 0  9990
2 54244   0.0178  82.4870 0000507 339.5487 213.6298  1.00272068 10151
GALAXY 35 (G-35)        
1 54741U 22170A   25235.22756426 -.00000179  00000+0  00000+0 0  9990
2 54741   0.0121 179.2387 0001953 336.0647 165.2700  1.00271098  9908
GALAXY 36 (G-36)        
1 54742U 22170B   25235.22834427 -.00000202  00000+0  00000+0 0  9996
2 54742   0.0171 121.2598 0002143   4.1370 199.5631  1.00271919  9784
GALAXY 37 (G-37)        
1 57493U 23112A   25234.50711280  .00000030  00000+0  00000+0 0  9998
2 57493   0.0142  89.6986 0001891  70.4278 226.4800  1.00272070  7547
